{
  "norad_id": 57515,
  "name": "STARLINK-30081",
  "history": [
    {
      "epoch": "2026-03-28T19:30:57.779136",
      "apogee_km": 483.6055427126139,
      "perigee_km": 482.49965617297494,
      "latitude_deg": -35.86405051497437,
      "longitude_deg": 9.564199039945379,
      "semi_major_axis_km": 6861.189599442794,
      "eccentricity": 8.059e-05,
      "inclination_deg": 43.0016,
      "raan_deg": 267.7545,
      "arg_perigee_deg": 262.7656,
      "mean_anomaly_deg": 97.3104,
      "mean_motion_rev_day": 15.2757883
    }
  ]
}